{"type": "FeatureCollection", "features": [ {"type": "Feature", "properties": {"norad_id": 30467, "name": "FENGYUN 1C DEB", "group": "fengyun-1c-debris", "lat": -52.360757453624245, "lon": 179.96573175561468, "alt_km": 847.2494011158105, "timestamp": "2025-12-09T18:55:17.508449+00:00", "meta": {"OBJECT_NAME": "FENGYUN 1C DEB", "OBJECT_ID": "1999-025AGE", "EPOCH": "2025-12-09T13:27:35.489952", "MEAN_MOTION": 14.17258668, "ECCENTRICITY": 0.00653211, "INCLINATION": 98.6792, "RA_OF_ASC_NODE": 11.1674, "ARG_OF_PERICENTER": 136.5039, "MEAN_ANOMALY": 15.4706, "EPHEMERIS_TYPE": 0, "CLASSIFICATION_TYPE": "U", "NORAD_CAT_ID": 30467, "ELEMENT_SET_NO": 999, "REV_AT_EPOCH": 97132, "BSTAR": 0.0013339207, "MEAN_MOTION_DOT": 2.709e-05, "MEAN_MOTION_DDOT": 0}, "tle": {"line1": "1 30467U 99025AGE 25343.56082743  .00002709  00000+0  13339-2 0  9995", "line2": "2 30467  98.6792  11.1674 0065321 136.5039  15.4706 14.17258668971320"}}, "geometry": {"type": "Point", "coordinates": [179.96573175561468, -52.360757453624245]}}, {"type": "Feature", "properties": {"norad_id": 30468, "name": "FENGYUN 1C DEB", "group": "fengyun-1c-debris", "lat": 32.74982846027405, "lon": -108.94410404083105, "alt_km": 827.9909035684568, "timestamp": "2025-12-09T18:55:17.508459+00:00", "meta": {"OBJECT_NAME": "FENGYUN 1C DEB", "OBJECT_ID": "1999-025AGF", "EPOCH": "2025-12-09T04:58:13.553184", "MEAN_MOTION": 14.20673368, "ECCENTRICITY": 0.00721566, "INCLINATION": 98.9219, "RA_OF_ASC_NODE": 64.6702, "ARG_OF_PERICENTER": 50.2632, "MEAN_ANOMALY": 4.2901, "EPHEMERIS_TYPE": 0, "CLASSIFICATION_TYPE": "U", "NORAD_CAT_ID": 30468, "ELEMENT_SET_NO": 999, "REV_AT_EPOCH": 96760, "BSTAR": 0.0016520411, "MEAN_MOTION_DOT": 3.61e-05, "MEAN_MOTION_DDOT": 0}, "tle": {"line1": "1 30468U 99025AGF 25343.20710131  .00003610  00000+0  16520-2 0  9993", "line2": "2 30468  98.9219  64.6702 0072156  50.2632   4.2901 14.20673368967609"}}, "geometry": {"type": "Point", "coordinates": [-108.94410404083105, 32.74982846027405]}}, {"type": "Feature", "properties": {"norad_id": 30469, "name": "FENGYUN 1C DEB", "group": "fengyun-1c-debris", "lat": 29.199441384455202, "lon": -170.05865150157535, "alt_km": 1002.3280711360057, "timestamp": "2025-12-09T18:55:17.508469+00:00", "meta": {"OBJECT_NAME": "FENGYUN 1C DEB", "OBJECT_ID": "1999-025AGG", "EPOCH": "2025-12-09T12:12:00.791136", "MEAN_MOTION": 13.96499545, "ECCENTRICITY": 0.01586051, "INCLINATION": 98.4781, "RA_OF_ASC_NODE": 194.4647, "ARG_OF_PERICENTER": 178.7938, "MEAN_ANOMALY": 244.6539, "EPHEMERIS_TYPE": 0, "CLASSIFICATION_TYPE": "U", "NORAD_CAT_ID": 30469, "ELEMENT_SET_NO": 999, "REV_AT_EPOCH": 95661, "BSTAR": 0.0011792313, "MEAN_MOTION_DOT": 1.773e-05, "MEAN_MOTION_DDOT": 0}, "tle": {"line1": "1 30469U 99025AGG 25343.50834249  .00001773  00000+0  11792-2 0  9998", "line2": "2 30469  98.4781 194.4647 0158605 178.7938 244.6539 13.96499545956619"}}, "geometry": {"type": "Point", "coordinates": [-170.05865150157535, 29.199441384455202]}}, {"type": "Feature", "properties": {"norad_id": 30471, "name": "FENGYUN 1C DEB", "group": "fengyun-1c-debris", "lat": -56.00450260485496, "lon": 85.02778186466918, "alt_km": 809.2532250992799, "timestamp": "2025-12-09T18:55:17.508479+00:00", "meta": {"OBJECT_NAME": "FENGYUN 1C DEB", "OBJECT_ID": "1999-025AGJ", "EPOCH": "2025-12-09T05:54:01.744992", "MEAN_MOTION": 14.13591178, "ECCENTRICITY": 0.008214, "INCLINATION": 99.0538, "RA_OF_ASC_NODE": 70.8027, "ARG_OF_PERICENTER": 263.2657, "MEAN_ANOMALY": 159.6527, "EPHEMERIS_TYPE": 0, "CLASSIFICATION_TYPE": "U", "NORAD_CAT_ID": 30471, "ELEMENT_SET_NO": 999, "REV_AT_EPOCH": 96393, "BSTAR": 0.0026974, "MEAN_MOTION_DOT": 5.209e-05, "MEAN_MOTION_DDOT": 0}, "tle": {"line1": "1 30471U 99025AGJ 25343.24585353  .00005209  00000+0  26974-2 0  9997", "line2": "2 30471  99.0538  70.8027 0082140 263.2657 159.6527 14.13591178963936"}}, "geometry": {"type": "Point", "coordinates": [85.02778186466918, -56.00450260485496]}}, {"type": "Feature", "properties": {"norad_id": 30472, "name": "FENGYUN 1C DEB", "group": "fengyun-1c-debris", "lat": -16.76531087910685, "lon": 87.42836740020924, "alt_km": 725.6239595573606, "timestamp": "2025-12-09T18:55:17.508489+00:00", "meta": {"OBJECT_NAME": "FENGYUN 1C DEB", "OBJECT_ID": "1999-025AGK", "EPOCH": "2025-12-09T06:01:51.454272", "MEAN_MOTION": 14.53679607, "ECCENTRICITY": 0.0038473, "INCLINATION": 98.6514, "RA_OF_ASC_NODE": 84.2449, "ARG_OF_PERICENTER": 90.202, "MEAN_ANOMALY": 324.1853, "EPHEMERIS_TYPE": 0, "CLASSIFICATION_TYPE": "U", "NORAD_CAT_ID": 30472, "ELEMENT_SET_NO": 999, "REV_AT_EPOCH": 97990, "BSTAR": 0.0032714, "MEAN_MOTION_DOT": 0.00013807, "MEAN_MOTION_DDOT": 0}, "tle": {"line1": "1 30472U 99025AGK 25343.25128998  .00013807  00000+0  32714-2 0  9999", "line2": "2 30472  98.6514  84.2449 0038473  90.2020 324.1853 14.53679607979908"}}, "geometry": {"type": "Point", "coordinates": [87.42836740020924, -16.76531087910685]}}, {"type": "Feature", "properties": {"norad_id": 30474, "name": "FENGYUN 1C DEB", "group": "fengyun-1c-debris", "lat": 28.69214940823976, "lon": 57.62192211217673, "alt_km": 748.9962922414825, "timestamp": "2025-12-09T18:55:17.508499+00:00", "meta": {"OBJECT_NAME": "FENGYUN 1C DEB", "OBJECT_ID": "1999-025AGM", "EPOCH": "2025-12-09T04:03:44.417376", "MEAN_MOTION": 14.37685422, "ECCENTRICITY": 0.00229299, "INCLINATION": 98.9288, "RA_OF_ASC_NODE": 61.9152, "ARG_OF_PERICENTER": 15.0817, "MEAN_ANOMALY": 51.4093, "EPHEMERIS_TYPE": 0, "CLASSIFICATION_TYPE": "U", "NORAD_CAT_ID": 30474, "ELEMENT_SET_NO": 999, "REV_AT_EPOCH": 97342, "BSTAR": 0.0025927293, "MEAN_MOTION_DOT": 7.777e-05, "MEAN_MOTION_DDOT": 0}, "tle": {"line1": "1 30474U 99025AGM 25343.16926409  .00007777  00000+0  25927-2 0  9991", "line2": "2 30474  98.9288  61.9152 0022929  15.0817  51.4093 14.37685422973423"}}, "geometry": {"type": "Point", "coordinates": [57.62192211217673, 28.69214940823976]}}, {"type": "Feature", "properties": {"norad_id": 30475, "name": "FENGYUN 1C DEB", "group": "fengyun-1c-debris", "lat": -32.19229315923296, "lon": 30.94185059779404, "alt_km": 819.1566658143665, "timestamp": "2025-12-09T18:55:17.508509+00:00", "meta": {"OBJECT_NAME": "FENGYUN 1C DEB", "OBJECT_ID": "1999-025AGN", "EPOCH": "2025-12-09T14:41:55.940064", "MEAN_MOTION": 14.15665598, "ECCENTRICITY": 0.00422472, "INCLINATION": 98.7875, "RA_OF_ASC_NODE": 25.1801, "ARG_OF_PERICENTER": 299.8193, "MEAN_ANOMALY": 211.2561, "EPHEMERIS_TYPE": 0, "CLASSIFICATION_TYPE": "U", "NORAD_CAT_ID": 30475, "ELEMENT_SET_NO": 999, "REV_AT_EPOCH": 96907, "BSTAR": 0.0012258611, "MEAN_MOTION_DOT": 2.38e-05, "MEAN_MOTION_DDOT": 0}, "tle": {"line1": "1 30475U 99025AGN 25343.61245301  .00002380  00000+0  12259-2 0  9996", "line2": "2 30475  98.7875  25.1801 0042247 299.8193 211.2561 14.15665598969071"}}, "geometry": {"type": "Point", "coordinates": [30.94185059779404, -32.19229315923296]}}, {"type": "Feature", "properties": {"norad_id": 30476, "name": "FENGYUN 1C DEB", "group": "fengyun-1c-debris", "lat": 29.489015129160737, "lon": 15.672716416925132, "alt_km": 816.134849965415, "timestamp": "2025-12-09T18:55:17.508520+00:00", "meta": {"OBJECT_NAME": "FENGYUN 1C DEB", "OBJECT_ID": "1999-025AGP", "EPOCH": "2025-12-09T14:26:01.595904", "MEAN_MOTION": 14.2088173, "ECCENTRICITY": 0.0044886, "INCLINATION": 99.1245, "RA_OF_ASC_NODE": 20.6944, "ARG_OF_PERICENTER": 308.6607, "MEAN_ANOMALY": 204.8799, "EPHEMERIS_TYPE": 0, "CLASSIFICATION_TYPE": "U", "NORAD_CAT_ID": 30476, "ELEMENT_SET_NO": 999, "REV_AT_EPOCH": 96800, "BSTAR": 0.0021052132, "MEAN_MOTION_DOT": 4.555e-05, "MEAN_MOTION_DDOT": 0}, "tle": {"line1": "1 30476U 99025AGP 25343.60140736  .00004555  00000+0  21052-2 0  9999", "line2": "2 30476  99.1245  20.6944 0044886 308.6607 204.8799 14.20881730968003"}}, "geometry": {"type": "Point", "coordinates": [15.672716416925132, 29.489015129160737]}}, {"type": "Feature", "properties": {"norad_id": 30477, "name": "FENGYUN 1C DEB", "group": "fengyun-1c-debris", "lat": -8.046291062500035, "lon": 68.44196669503238, "alt_km": 1039.1015952274656, "timestamp": "2025-12-09T18:55:17.508529+00:00", "meta": {"OBJECT_NAME": "FENGYUN 1C DEB", "OBJECT_ID": "1999-025AGQ", "EPOCH": "2025-12-09T11:49:24.756096", "MEAN_MOTION": 13.23802194, "ECCENTRICITY": 0.04324568, "INCLINATION": 99.4256, "RA_OF_ASC_NODE": 66.8282, "ARG_OF_PERICENTER": 284.7904, "MEAN_ANOMALY": 93.8918, "EPHEMERIS_TYPE": 0, "CLASSIFICATION_TYPE": "U", "NORAD_CAT_ID": 30477, "ELEMENT_SET_NO": 999, "REV_AT_EPOCH": 90676, "BSTAR": 0.0041618011, "MEAN_MOTION_DOT": 2.875e-05, "MEAN_MOTION_DDOT": 0}, "tle": {"line1": "1 30477U 99025AGQ 25343.49264764  .00002875  00000+0  41618-2 0  9998", "line2": "2 30477  99.4256  66.8282 0432456 284.7904  93.8918 13.23802194906767"}}, "geometry": {"type": "Point", "coordinates": [68.44196669503238, -8.046291062500035]}}, {"type": "Feature", "properties": {"norad_id": 30480, "name": "FENGYUN 1C DEB", "group": "fengyun-1c-debris", "lat": -7.507665905092538, "lon": -0.16072244176713477, "alt_km": 896.523401401133, "timestamp": "2025-12-09T18:55:17.508540+00:00", "meta": {"OBJECT_NAME": "FENGYUN 1C DEB", "OBJECT_ID": "1999-025AGS", "EPOCH": "2025-12-09T07:19:29.115840", "MEAN_MOTION": 14.3359289, "ECCENTRICITY": 0.01662, "INCLINATION": 98.2239, "RA_OF_ASC_NODE": 358.2877, "ARG_OF_PERICENTER": 155.8754, "MEAN_ANOMALY": 224.9396, "EPHEMERIS_TYPE": 0, "CLASSIFICATION_TYPE": "U", "NORAD_CAT_ID": 30480, "ELEMENT_SET_NO": 999, "REV_AT_EPOCH": 98619, "BSTAR": 0.00035956, "MEAN_MOTION_DOT": 1.118e-05, "MEAN_MOTION_DDOT": 0}, "tle": {"line1": "1 30480U 99025AGS 25343.30519810  .00001118  00000+0  35956-3 0  9995", "line2": "2 30480  98.2239 358.2877 0166200 155.8754 224.9396 14.33592890986192"}}, "geometry": {"type": "Point", "coordinates": [-0.16072244176713477, -7.507665905092538]}}]}